{
  "links" : {
    "next" : "https://api.nasa.gov/neo/rest/v1/feed?start_date=1999-08-16&end_date=1999-08-16&detailed=true&api_key=t0TVs3DtDT2H8Oy2Zy8m2eVrNsAVKAexjcZXUckd",
    "prev" : "https://api.nasa.gov/neo/rest/v1/feed?start_date=1999-08-14&end_date=1999-08-14&detailed=true&api_key=t0TVs3DtDT2H8Oy2Zy8m2eVrNsAVKAexjcZXUckd",
    "self" : "https://api.nasa.gov/neo/rest/v1/feed?start_date=1999-08-15&end_date=1999-08-15&detailed=true&api_key=t0TVs3DtDT2H8Oy2Zy8m2eVrNsAVKAexjcZXUckd"
  },
  "element_count" : 5,
  "near_earth_objects" : {
    "1999-08-15" : [ {
      "links" : {
        "self" : "https://api.nasa.gov/neo/rest/v1/neo/2219071?api_key=t0TVs3DtDT2H8Oy2Zy8m2eVrNsAVKAexjcZXUckd"
      },
      "neo_reference_id" : "2219071",
      "name" : "219071 (1997 US9)",
      "nasa_jpl_url" : "http://ssd.jpl.nasa.gov/sbdb.cgi?sstr=2219071",
      "absolute_magnitude_h" : 17.1,
      "estimated_diameter" : {
        "kilometers" : {
          "estimated_diameter_min" : 1.0105434154,
          "estimated_diameter_max" : 2.2596437711
        },
        "meters" : {
          "estimated_diameter_min" : 1010.5434154201,
          "estimated_diameter_max" : 2259.643771094
        },
        "miles" : {
          "estimated_diameter_min" : 0.6279223726,
          "estimated_diameter_max" : 1.4040771097
        },
        "feet" : {
          "estimated_diameter_min" : 3315.4312590467,
          "estimated_diameter_max" : 7413.5296699562
        }
      },
      "is_potentially_hazardous_asteroid" : false,
      "close_approach_data" : [ {
        "close_approach_date" : "1999-08-15",
        "epoch_date_close_approach" : 934700400000,
        "relative_velocity" : {
          "kilometers_per_second" : "16.0466917436",
          "kilometers_per_hour" : "57768.09027682",
          "miles_per_hour" : "35894.8447611718"
        },
        "miss_distance" : {
          "astronomical" : "0.4278103697",
          "lunar" : "166.4182281494",
          "kilometers" : "63999520",
          "miles" : "39767460"
        },
        "orbiting_body" : "Earth"
      } ],
      "orbital_data" : {
        "orbit_id" : "137",
        "orbit_determination_date" : "2017-04-06 09:25:16",
        "orbit_uncertainty" : "0",
        "minimum_orbit_intersection" : ".247932",
        "jupiter_tisserand_invariant" : "5.754",
        "epoch_osculation" : "2458000.5",
        "eccentricity" : ".2820780457056503",
        "semi_major_axis" : "1.052734156895495",
        "inclination" : "20.01852039711881",
        "ascending_node_longitude" : "212.2178084276256",
        "orbital_period" : "394.5267893493367",
        "perihelion_distance" : ".7557809632708281",
        "perihelion_argument" : "357.3731755248546",
        "aphelion_distance" : "1.349687350520161",
        "perihelion_time" : "2458038.844291658472",
        "mean_anomaly" : "325.0113873893942",
        "mean_motion" : ".9124855642723803",
        "equinox" : "J2000"
      }
    }, {
      "links" : {
        "self" : "https://api.nasa.gov/neo/rest/v1/neo/3114026?api_key=t0TVs3DtDT2H8Oy2Zy8m2eVrNsAVKAexjcZXUckd"
      },
      "neo_reference_id" : "3114026",
      "name" : "(2002 CC14)",
      "nasa_jpl_url" : "http://ssd.jpl.nasa.gov/sbdb.cgi?sstr=3114026",
      "absolute_magnitude_h" : 24.8,
      "estimated_diameter" : {
        "kilometers" : {
          "estimated_diameter_min" : 0.0291443905,
          "estimated_diameter_max" : 0.0651688382
        },
        "meters" : {
          "estimated_diameter_min" : 29.1443904535,
          "estimated_diameter_max" : 65.1688382168
        },
        "miles" : {
          "estimated_diameter_min" : 0.018109479,
          "estimated_diameter_max" : 0.0404940262
        },
        "feet" : {
          "estimated_diameter_min" : 95.6180819754,
          "estimated_diameter_max" : 213.8085311752
        }
      },
      "is_potentially_hazardous_asteroid" : false,
      "close_approach_data" : [ {
        "close_approach_date" : "1999-08-15",
        "epoch_date_close_approach" : 934700400000,
        "relative_velocity" : {
          "kilometers_per_second" : "20.1827866428",
          "kilometers_per_hour" : "72658.0319142596",
          "miles_per_hour" : "45146.8754413909"
        },
        "miss_distance" : {
          "astronomical" : "0.4961121553",
          "lunar" : "192.9876403809",
          "kilometers" : "74217328",
          "miles" : "46116508"
        },
        "orbiting_body" : "Earth"
      } ],
      "orbital_data" : {
        "orbit_id" : "9",
        "orbit_determination_date" : "2017-04-06 09:15:28",
        "orbit_uncertainty" : "7",
        "minimum_orbit_intersection" : ".0106654",
        "jupiter_tisserand_invariant" : "7.058",
        "epoch_osculation" : "2458000.5",
        "eccentricity" : ".4037261623846753",
        "semi_major_axis" : ".8195117319990217",
        "inclination" : "12.63735571735583",
        "ascending_node_longitude" : "137.597693274334",
        "orbital_period" : "270.9762259087088",
        "perihelion_distance" : ".4886534054098381",
        "perihelion_argument" : "218.0730404196863",
        "aphelion_distance" : "1.150370058588205",
        "perihelion_time" : "2457925.329865019379",
        "mean_anomaly" : "99.86576682981881",
        "mean_motion" : "1.328529832433651",
        "equinox" : "J2000"
      }
    }, {
      "links" : {
        "self" : "https://api.nasa.gov/neo/rest/v1/neo/3555910?api_key=t0TVs3DtDT2H8Oy2Zy8m2eVrNsAVKAexjcZXUckd"
      },
      "neo_reference_id" : "3555910",
      "name" : "(2011 BD40)",
      "nasa_jpl_url" : "http://ssd.jpl.nasa.gov/sbdb.cgi?sstr=3555910",
      "absolute_magnitude_h" : 20.6,
      "estimated_diameter" : {
        "kilometers" : {
          "estimated_diameter_min" : 0.2016299194,
          "estimated_diameter_max" : 0.4508582062
        },
        "meters" : {
          "estimated_diameter_min" : 201.6299194428,
          "estimated_diameter_max" : 450.8582061718
        },
        "miles" : {
          "estimated_diameter_min" : 0.1252869847,
          "estimated_diameter_max" : 0.2801502144
        },
        "feet" : {
          "estimated_diameter_min" : 661.5155049046,
          "estimated_diameter_max" : 1479.1936371367
        }
      },
      "is_potentially_hazardous_asteroid" : false,
      "close_approach_data" : [ {
        "close_approach_date" : "1999-08-15",
        "epoch_date_close_approach" : 934700400000,
        "relative_velocity" : {
          "kilometers_per_second" : "12.1478933441",
          "kilometers_per_hour" : "43732.4160386491",
          "miles_per_hour" : "27173.6226213484"
        },
        "miss_distance" : {
          "astronomical" : "0.2808257434",
          "lunar" : "109.2412109375",
          "kilometers" : "42010932",
          "miles" : "26104384"
        },
        "orbiting_body" : "Earth"
      } ],
      "orbital_data" : {
        "orbit_id" : "26",
        "orbit_determination_date" : "2017-04-06 08:54:46",
        "orbit_uncertainty" : "2",
        "minimum_orbit_intersection" : ".184769",
        "jupiter_tisserand_invariant" : "4.814",
        "epoch_osculation" : "2458000.5",
        "eccentricity" : ".1431498626400973",
        "semi_major_axis" : "1.343268204268661",
        "inclination" : "20.69556651089051",
        "ascending_node_longitude" : "310.8035041629921",
        "orbital_period" : "568.6467079927967",
        "perihelion_distance" : "1.150979545338792",
        "perihelion_argument" : "50.65579174021652",
        "aphelion_distance" : "1.53555686319853",
        "perihelion_time" : "2458263.239604907417",
        "mean_anomaly" : "193.6642832233395",
        "mean_motion" : ".6330820084595659",
        "equinox" : "J2000"
      }
    } ]
  }
}